<?xml version="1.0" ?>
<osm version="0.6">
  <node id="-1" lat="-0.00046210465200264265" lon="-0.0007283450265067901">
    <tag k="ele" v="-2.3621251109064905"/>
  </node>
  <node id="-2" lat="-0.000461104493267059" lon="-0.00071933835146638">
    <tag k="ele" v="-2.362619448662086"/>
  </node>
  <node id="-3" lat="-0.00046014784343085234" lon="-0.0007103277614699077">
    <tag k="ele" v="-2.363078035421462"/>
  </node>
  <node id="-4" lat="-0.00045923396059559365" lon="-0.000701313328418555">
    <tag k="ele" v="-2.363502036994939"/>
  </node>
  <node id="-5" lat="-0.0004583621028628541" lon="-0.0006922951242135034">
    <tag k="ele" v="-2.363892619192837"/>
  </node>
  <node id="-6" lat="-0.0004575315283342048" lon="-0.0006832732207559401">
    <tag k="ele" v="-2.3642509478254765"/>
  </node>
  <node id="-7" lat="-0.0004567414951112168" lon="-0.0006742476899470412">
    <tag k="ele" v="-2.3645781887031783"/>
  </node>
  <node id="-8" lat="-0.00045599126129546074" lon="-0.0006652186036879941">
    <tag k="ele" v="-2.364875507636263"/>
  </node>
  <node id="-9" lat="-0.0004552800849885084" lon="-0.0006561860338799695">
    <tag k="ele" v="-2.3651440704350497"/>
  </node>
  <node id="-10" lat="-0.0004546072242919304" lon="-0.0006471500524241706">
    <tag k="ele" v="-2.3653850429098595"/>
  </node>
  <node id="-11" lat="-0.0004539719373072975" lon="-0.000638110731221755">
    <tag k="ele" v="-2.3655995908710126"/>
  </node>
  <node id="-12" lat="-0.0004533734821361814" lon="-0.0006290681421739232">
    <tag k="ele" v="-2.36578888012883"/>
  </node>
  <node id="-13" lat="-0.0004528111168801527" lon="-0.0006200223571818516">
    <tag k="ele" v="-2.3659540764936313"/>
  </node>
  <node id="-14" lat="-0.0004522840996407824" lon="-0.000610973448146714">
    <tag k="ele" v="-2.3660963457757376"/>
  </node>
  <node id="-15" lat="-0.00045179168851964164" lon="-0.0006019214869697025">
    <tag k="ele" v="-2.366216853785468"/>
  </node>
  <node id="-16" lat="-0.0004513331416183014" lon="-0.0005928665455519885">
    <tag k="ele" v="-2.3663167663331457"/>
  </node>
  <node id="-17" lat="-0.0004509077170383327" lon="-0.0005838086957947722">
    <tag k="ele" v="-2.3663972492290886"/>
  </node>
  <node id="-18" lat="-0.0004505146728813067" lon="-0.0005747480095992221">
    <tag k="ele" v="-2.366459468283618"/>
  </node>
  <node id="-19" lat="-0.00045015326724879407" lon="-0.0005656845588665279">
    <tag k="ele" v="-2.3665045893070524"/>
  </node>
  <node id="-20" lat="-0.00044982275824236587" lon="-0.0005566184154978634">
    <tag k="ele" v="-2.3665337781097153"/>
  </node>
  <node id="-21" lat="-0.0004495224039635936" lon="-0.0005475496513944131">
    <tag k="ele" v="-2.366548200501925"/>
  </node>
  <node id="-22" lat="-0.00044925146251404764" lon="-0.0005384783384573638">
    <tag k="ele" v="-2.3665490222940027"/>
  </node>
  <node id="-23" lat="-0.00044900919199529927" lon="-0.0005294045485878951">
    <tag k="ele" v="-2.3665374092962685"/>
  </node>
  <node id="-24" lat="-0.0004487948505089193" lon="-0.0005203283536871856">
    <tag k="ele" v="-2.3665145273190427"/>
  </node>
  <node id="-25" lat="-0.0004486076961564787" lon="-0.00051124982565642">
    <tag k="ele" v="-2.366481542172646"/>
  </node>
  <node id="-26" lat="-0.0004484469870395487" lon="-0.0005021690363967747">
    <tag k="ele" v="-2.3664396196673985"/>
  </node>
  <node id="-27" lat="-0.0004483119812597" lon="-0.0004930860578094476">
    <tag k="ele" v="-2.366389925613621"/>
  </node>
  <node id="-28" lat="-0.00044820193691850395" lon="-0.00048400096179560426">
    <tag k="ele" v="-2.3663336258216336"/>
  </node>
  <node id="-29" lat="-0.0004481161121175309" lon="-0.00047491382025644">
    <tag k="ele" v="-2.366271886101757"/>
  </node>
  <node id="-30" lat="-0.0004480537649583525" lon="-0.0004658247050931258">
    <tag k="ele" v="-2.3662058722643105"/>
  </node>
  <node id="-31" lat="-0.00044801415354253914" lon="-0.00045673368820685426">
    <tag k="ele" v="-2.3661367501196167"/>
  </node>
  <node id="-32" lat="-0.00044799653597166206" lon="-0.0004476408414987965">
    <tag k="ele" v="-2.366065685477994"/>
  </node>
  <node id="-33" lat="-0.0004480001703472924" lon="-0.00043854623687013413">
    <tag k="ele" v="-2.365993844149763"/>
  </node>
  <node id="-34" lat="-0.0004480243147710008" lon="-0.0004294499462220625">
    <tag k="ele" v="-2.365922391945244"/>
  </node>
  <node id="-35" lat="-0.00044806822734435843" lon="-0.0004203520414557634">
    <tag k="ele" v="-2.3658524946747583"/>
  </node>
  <node id="-36" lat="-0.000448131166168936" lon="-0.0004112525944723998">
    <tag k="ele" v="-2.365785318148627"/>
  </node>
  <node id="-37" lat="-0.0004482123893463048" lon="-0.0004021516771731726">
    <tag k="ele" v="-2.365722028177168"/>
  </node>
  <node id="-38" lat="-0.00044831115497803546" lon="-0.0003930493614592551">
    <tag k="ele" v="-2.365663790570703"/>
  </node>
  <node id="-39" lat="-0.0004484267211656991" lon="-0.00038394571923182146">
    <tag k="ele" v="-2.365611771139553"/>
  </node>
  <node id="-40" lat="-0.0004485583460108669" lon="-0.00037484082239207743">
    <tag k="ele" v="-2.3655671356940378"/>
  </node>
  <node id="-41" lat="-0.0004487052876151093" lon="-0.0003657347428411942">
    <tag k="ele" v="-2.365531050044477"/>
  </node>
  <node id="-42" lat="-0.00044886680407999776" lon="-0.0003566275524803457">
    <tag k="ele" v="-2.365504680001192"/>
  </node>
  <node id="-43" lat="-0.00044904215350710295" lon="-0.0003475193232107134">
    <tag k="ele" v="-2.3654891913745035"/>
  </node>
  <node id="-44" lat="-0.0004492305939979959" lon="-0.00033841012693349565">
    <tag k="ele" v="-2.3654857499747313"/>
  </node>
  <node id="-45" lat="-0.0004494313836542475" lon="-0.00032930003554986604">
    <tag k="ele" v="-2.3654955216121953"/>
  </node>
  <node id="-46" lat="-0.0004496437805774288" lon="-0.00032018912096099563">
    <tag k="ele" v="-2.365519672097217"/>
  </node>
  <node id="-47" lat="-0.0004498670428691108" lon="-0.00031107745506807983">
    <tag k="ele" v="-2.365559367240116"/>
  </node>
  <node id="-48" lat="-0.00045010042863086446" lon="-0.00030196510977230573">
    <tag k="ele" v="-2.365615772851213"/>
  </node>
  <node id="-49" lat="-0.0004503431959642607" lon="-0.0002928521569748445">
    <tag k="ele" v="-2.365690054740828"/>
  </node>
  <node id="-50" lat="-0.00045059460297087035" lon="-0.0002837386685768756">
    <tag k="ele" v="-2.3657833787192817"/>
  </node>
  <node id="-51" lat="-0.0004508539077522645" lon="-0.0002746247164795885">
    <tag k="ele" v="-2.365896910596895"/>
  </node>
  <node id="-52" lat="-0.0004511203684100142" lon="-0.00026551037258417326">
    <tag k="ele" v="-2.366031816183987"/>
  </node>
  <node id="-53" lat="-0.00045139324304569036" lon="-0.00025639570879179053">
    <tag k="ele" v="-2.3661892612908795"/>
  </node>
  <node id="-54" lat="-0.0004516717897608638" lon="-0.00024728079700364077">
    <tag k="ele" v="-2.3663704117278925"/>
  </node>
  <node id="-55" lat="-0.0004519552666571059" lon="-0.000238165709120895">
    <tag k="ele" v="-2.366576433305345"/>
  </node>
  <node id="-56" lat="-0.000452242931835987" lon="-0.00022905051704475408">
    <tag k="ele" v="-2.3668084918335595"/>
  </node>
  <node id="-57" lat="-0.00045253404339907875" lon="-0.00021993529267637843">
    <tag k="ele" v="-2.3670677531228557"/>
  </node>
  <node id="-58" lat="-0.0004528278594479517" lon="-0.00021082010791695789">
    <tag k="ele" v="-2.3673553829835527"/>
  </node>
  <node id="-59" lat="-0.00045312363808417696" lon="-0.00020170503466767722">
    <tag k="ele" v="-2.3676725472259723"/>
  </node>
  <node id="-60" lat="-0.0004534206374093257" lon="-0.0001925901448297156">
    <tag k="ele" v="-2.3680204116604346"/>
  </node>
  <node id="-61" lat="-0.0004537181155249687" lon="-0.00018347551030425193">
    <tag k="ele" v="-2.3684001420972596"/>
  </node>
  <node id="-62" lat="-0.00045401533053267696" lon="-0.00017436120299248187">
    <tag k="ele" v="-2.3688129043467683"/>
  </node>
  <node id="-63" lat="-0.00045431154053402156" lon="-0.00016524729479557647">
    <tag k="ele" v="-2.3692598642192806"/>
  </node>
  <node id="-64" lat="-0.0004546060036305736" lon="-0.0001561338576147151">
    <tag k="ele" v="-2.3697421875251172"/>
  </node>
  <node id="-65" lat="-0.00045489797792390397" lon="-0.00014702096335108473">
    <tag k="ele" v="-2.370261040074598"/>
  </node>
  <node id="-66" lat="-0.00045518672151558356" lon="-0.0001379086839058809">
    <tag k="ele" v="-2.3708175876780437"/>
  </node>
  <node id="-67" lat="-0.0004554714925071837" lon="-0.0001287970911802616">
    <tag k="ele" v="-2.371412996145775"/>
  </node>
  <node id="-68" lat="-0.00045575154900027537" lon="-0.00011968625707542688">
    <tag k="ele" v="-2.372048431288112"/>
  </node>
  <node id="-69" lat="-0.0004560261490964291" lon="-0.00011057625349255143">
    <tag k="ele" v="-2.3727250589153748"/>
  </node>
  <node id="-70" lat="-0.00045629455089721656" lon="-0.00010146715233281406">
    <tag k="ele" v="-2.3734440448378846"/>
  </node>
  <node id="-71" lat="-0.0004565560125042087" lon="-9.235902549740234e-05">
    <tag k="ele" v="-2.3742065548659608"/>
  </node>
  <node id="-72" lat="-0.00045680979201897625" lon="-8.325194488750559e-05">
    <tag k="ele" v="-2.3750137548099244"/>
  </node>
  <node id="-73" lat="-0.0004570551475430907" lon="-7.414598240429033e-05">
    <tag k="ele" v="-2.3758668104800957"/>
  </node>
  <node id="-74" lat="-0.00045729133717812247" lon="-6.504120994895719e-05">
    <tag k="ele" v="-2.3767668876867947"/>
  </node>
  <node id="-75" lat="-0.0004575176190256434" lon="-5.593769942267455e-05">
    <tag k="ele" v="-2.3777151522403424"/>
  </node>
  <node id="-76" lat="-0.00045773325118722395" lon="-4.6835522726618916e-05">
    <tag k="ele" v="-2.3787127699510586"/>
  </node>
  <node id="-77" lat="-0.00045793749176443565" lon="-3.7734751761988606e-05">
    <tag k="ele" v="-2.379760906629264"/>
  </node>
  <node id="-78" lat="-0.0004581295988588493" lon="-2.8635458429968004e-05">
    <tag k="ele" v="-2.3808607280852794"/>
  </node>
  <node id="-79" lat="-0.00045830883057203616" lon="-1.9537714631720597e-05">
    <tag k="ele" v="-2.382013400129425"/>
  </node>
  <node id="-80" lat="-0.0004584744450055671" lon="-1.0441592268446669e-05">
    <tag k="ele" v="-2.3832200885720205"/>
  </node>
  <node id="-81" lat="-0.0004586257002610136" lon="-1.3471632413179662e-06">
    <tag k="ele" v="-2.384481959223387"/>
  </node>
  <node id="-82" lat="-0.00045876185443994633" lon="7.74550054848668e-06">
    <tag k="ele" v="-2.3858001778938442"/>
  </node>
  <node id="-83" lat="-0.00045888216564393696" lon="1.6836327199768828e-05">
    <tag k="ele" v="-2.3871759103937134"/>
  </node>
  <node id="-84" lat="-0.00061192937450354" lon="-0.000775745055771272">
    <tag k="ele" v="-2.360170955518703"/>
  </node>
  <node id="-85" lat="-0.0006132261133628112" lon="-0.000767628950547924">
    <tag k="ele" v="-2.360807739573129"/>
  </node>
  <node id="-86" lat="-0.000614493617517454" lon="-0.0007595087607809119">
    <tag k="ele" v="-2.361492322303383"/>
  </node>
  <node id="-87" lat="-0.000615731932854238" lon="-0.0007513842194418497">
    <tag k="ele" v="-2.362222860449411"/>
  </node>
  <node id="-88" lat="-0.0006169411052599328" lon="-0.0007432550595023701">
    <tag k="ele" v="-2.362997510751157"/>
  </node>
  <node id="-89" lat="-0.000618121180621308" lon="-0.0007351210139340922">
    <tag k="ele" v="-2.3638144299485644"/>
  </node>
  <node id="-90" lat="-0.0006192722048251332" lon="-0.0007269818157086302">
    <tag k="ele" v="-2.364671774781578"/>
  </node>
  <node id="-91" lat="-0.0006203942237581778" lon="-0.0007188371977976138">
    <tag k="ele" v="-2.3655677019901433"/>
  </node>
  <node id="-92" lat="-0.0006214872833072116" lon="-0.0007106868931726623">
    <tag k="ele" v="-2.366500368314203"/>
  </node>
  <node id="-93" lat="-0.000622551429359004" lon="-0.0007025306348054032">
    <tag k="ele" v="-2.3674679304937025"/>
  </node>
  <node id="-94" lat="-0.0006235867078003248" lon="-0.0006943681556674528">
    <tag k="ele" v="-2.3684685452685854"/>
  </node>
  <node id="-95" lat="-0.0006245931645179436" lon="-0.0006861991887304306">
    <tag k="ele" v="-2.369500369378797"/>
  </node>
  <node id="-96" lat="-0.00062557084539863" lon="-0.0006780234669659556">
    <tag k="ele" v="-2.370561559564281"/>
  </node>
  <node id="-97" lat="-0.0006265197963291534" lon="-0.0006698407233456608">
    <tag k="ele" v="-2.371650272564981"/>
  </node>
  <node id="-98" lat="-0.0006274400631962838" lon="-0.0006616506908411573">
    <tag k="ele" v="-2.3727646651208434"/>
  </node>
  <node id="-99" lat="-0.0006283316918867904" lon="-0.0006534531024240751">
    <tag k="ele" v="-2.3739028939718105"/>
  </node>
  <node id="-100" lat="-0.000629194728287443" lon="-0.0006452476910660307">
    <tag k="ele" v="-2.3750631158578286"/>
  </node>
  <node id="-101" lat="-0.000630029218285011" lon="-0.0006370341897386542">
    <tag k="ele" v="-2.376243487518841"/>
  </node>
  <node id="-102" lat="-0.0006308352077662646" lon="-0.0006288123314135541">
    <tag k="ele" v="-2.377442165694793"/>
  </node>
  <node id="-103" lat="-0.0006316127426179727" lon="-0.0006205818490623551">
    <tag k="ele" v="-2.3786573071256254"/>
  </node>
  <node id="-104" lat="-0.0006323618687269055" lon="-0.0006123424756566952">
    <tag k="ele" v="-2.379887068551287"/>
  </node>
  <node id="-105" lat="-0.000633082631979832" lon="-0.0006040939441681695">
    <tag k="ele" v="-2.3811296067117196"/>
  </node>
  <node id="-106" lat="-0.0006337750782635224" lon="-0.0005958359875684241">
    <tag k="ele" v="-2.3823830783468694"/>
  </node>
  <node id="-107" lat="-0.0006344392534647459" lon="-0.0005875683388290598">
    <tag k="ele" v="-2.3836456401966792"/>
  </node>
  <node id="-108" lat="-0.0006350752034702725" lon="-0.0005792907309217249">
    <tag k="ele" v="-2.384915449001094"/>
  </node>
  <node id="-109" lat="-0.0006356829741668716" lon="-0.0005710028968180095">
    <tag k="ele" v="-2.3861906615000574"/>
  </node>
  <node id="-110" lat="-0.0006362626114413127" lon="-0.000562704569489565">
    <tag k="ele" v="-2.3874694344335143"/>
  </node>
  <node id="-111" lat="-0.0006368141611803656" lon="-0.0005543954819079867">
    <tag k="ele" v="-2.3887499245414094"/>
  </node>
  <node id="-112" lat="-0.0006373376692708001" lon="-0.0005460753670449178">
    <tag k="ele" v="-2.3900302885636875"/>
  </node>
  <node id="-113" lat="-0.0006378331815993855" lon="-0.0005377439578719722">
    <tag k="ele" v="-2.3913086832402923"/>
  </node>
  <node id="-114" lat="-0.0006383007440528917" lon="-0.0005294009873607695">
    <tag k="ele" v="-2.392583265311167"/>
  </node>
  <node id="-115" lat="-0.000638740402518088" lon="-0.0005210461884829341">
    <tag k="ele" v="-2.3938521915162574"/>
  </node>
  <node id="-116" lat="-0.0006391522028817443" lon="-0.0005126792942100826">
    <tag k="ele" v="-2.3951136185955075"/>
  </node>
  <node id="-117" lat="-0.0006395361910306303" lon="-0.0005043000375138426">
    <tag k="ele" v="-2.396365703288862"/>
  </node>
  <node id="-118" lat="-0.0006398924128515153" lon="-0.0004959081513658306">
    <tag k="ele" v="-2.3976066023362645"/>
  </node>
  <node id="-119" lat="-0.0006402209142311693" lon="-0.00048750336873767643">
    <tag k="ele" v="-2.3988344724776614"/>
  </node>
  <node id="-120" lat="-0.0006405217410563618" lon="-0.00047908542260099963">
    <tag k="ele" v="-2.4000474704529933"/>
  </node>
  <node id="-121" lat="-0.0006407949392138625" lon="-0.0004706540459274194">
    <tag k="ele" v="-2.4012437530022073"/>
  </node>
  <node id="-122" lat="-0.0006410405545904408" lon="-0.00046220897168855257">
    <tag k="ele" v="-2.4024214768652477"/>
  </node>
  <node id="-123" lat="-0.0006412586330728666" lon="-0.00045374993285603166">
    <tag k="ele" v="-2.4035787987820587"/>
  </node>
  <node id="-124" lat="-0.0006414492205479095" lon="-0.0004452766624014759">
    <tag k="ele" v="-2.404713875492584"/>
  </node>
  <node id="-125" lat="-0.0006416123629023391" lon="-0.0004367888932964969">
    <tag k="ele" v="-2.405824863736768"/>
  </node>
  <node id="-126" lat="-0.000641748106022925" lon="-0.00042828635851272986">
    <tag k="ele" v="-2.406909920254555"/>
  </node>
  <node id="-127" lat="-0.000641856495796437" lon="-0.0004197687910217914">
    <tag k="ele" v="-2.407967201785889"/>
  </node>
  <node id="-128" lat="-0.0006419375781096446" lon="-0.00041123592379529295">
    <tag k="ele" v="-2.4089948650707167"/>
  </node>
  <node id="-129" lat="-0.0006419913988493175" lon="-0.00040268748980487525">
    <tag k="ele" v="-2.40999106684898"/>
  </node>
  <node id="-130" lat="-0.0006420180039022254" lon="-0.00039412322202215464">
    <tag k="ele" v="-2.4109539638606243"/>
  </node>
  <node id="-131" lat="-0.0006420174391551383" lon="-0.000385542853418743">
    <tag k="ele" v="-2.4118817128455934"/>
  </node>
  <node id="-132" lat="-0.000641989750494825" lon="-0.000376946116966262">
    <tag k="ele" v="-2.412772470543832"/>
  </node>
  <node id="-133" lat="-0.000641934983808056" lon="-0.00036833274563635764">
    <tag k="ele" v="-2.413624393695284"/>
  </node>
  <node id="-134" lat="-0.0006418531849816005" lon="-0.0003597024724006175">
    <tag k="ele" v="-2.4144356390398953"/>
  </node>
  <node id="-135" lat="-0.0006417443999022283" lon="-0.00035105503023068484">
    <tag k="ele" v="-2.4152043633176086"/>
  </node>
  <node id="-136" lat="-0.0006416086744567092" lon="-0.00034239015209818147">
    <tag k="ele" v="-2.415928723268369"/>
  </node>
  <node id="-137" lat="-0.0006414460545318128" lon="-0.0003337075709747245">
    <tag k="ele" v="-2.41660687563212"/>
  </node>
  <node id="-138" lat="-0.0006412565860143084" lon="-0.0003250070198319278">
    <tag k="ele" v="-2.417236977148807"/>
  </node>
  <node id="-139" lat="-0.0006410403147909661" lon="-0.0003162882316414372">
    <tag k="ele" v="-2.417817184558374"/>
  </node>
  <node id="-140" lat="-0.0006407972867485557" lon="-0.0003075509393748405">
    <tag k="ele" v="-2.418345654600765"/>
  </node>
  <node id="-141" lat="-0.0006405275477738462" lon="-0.00029879487600378607">
    <tag k="ele" v="-2.4188205440159254"/>
  </node>
  <node id="-142" lat="-0.0006402311437536082" lon="-0.00029001977449988537">
    <tag k="ele" v="-2.419240009543798"/>
  </node>
  <node id="-143" lat="-0.0006399081205746106" lon="-0.0002812253678347687">
    <tag k="ele" v="-2.4196022079243287"/>
  </node>
  <node id="-144" lat="-0.0006395585241236237" lon="-0.0002724113889800444">
    <tag k="ele" v="-2.419905295897461"/>
  </node>
  <node id="-145" lat="-0.0006391824002874166" lon="-0.00026357757090735094">
    <tag k="ele" v="-2.4201474302031394"/>
  </node>
  <node id="-146" lat="-0.0006387797949527593" lon="-0.0002547236465882913">
    <tag k="ele" v="-2.420326767581308"/>
  </node>
  <node id="-147" lat="-0.0006383507540064214" lon="-0.00024584934899449587">
    <tag k="ele" v="-2.420441464771912"/>
  </node>
  <node id="-148" lat="-0.0006378953233351728" lon="-0.00023695441109759726">
    <tag k="ele" v="-2.420489678514895"/>
  </node>
  <node id="-149" lat="-0.000637413548825783" lon="-0.00022803856586919898">
    <tag k="ele" v="-2.420469565550201"/>
  </node>
  <node id="-150" lat="-0.0006369054763650216" lon="-0.00021910154628093106">
    <tag k="ele" v="-2.4203792826177755"/>
  </node>
  <node id="-151" lat="-0.000636371151839659" lon="-0.00021014308530442082">
    <tag k="ele" v="-2.4202169864575622"/>
  </node>
  <node id="-152" lat="-0.0006358106211364636" lon="-0.00020116291591128525">
    <tag k="ele" v="-2.4199808338095052"/>
  </node>
  <node id="-153" lat="-0.0006352239301422062" lon="-0.00019216077107314888">
    <tag k="ele" v="-2.4196689814135497"/>
  </node>
  <node id="-154" lat="-0.0006346111247436563" lon="-0.0001831363837616259">
    <tag k="ele" v="-2.4192795860096394"/>
  </node>
  <node id="-155" lat="-0.0006339722508275832" lon="-0.00017408948694834123">
    <tag k="ele" v="-2.418810804337719"/>
  </node>
  <node id="-156" lat="-0.0006333073542807569" lon="-0.00016501981360493264">
    <tag k="ele" v="-2.418260793137732"/>
  </node>
  <node id="-157" lat="-0.0006326164809899471" lon="-0.00015592709670299878">
    <tag k="ele" v="-2.417627709149624"/>
  </node>
  <node id="-158" lat="-0.0006318996768419237" lon="-0.00014681106921416386">
    <tag k="ele" v="-2.4169097091133382"/>
  </node>
  <node id="-159" lat="-0.0006311569877234559" lon="-0.00013767146411007176">
    <tag k="ele" v="-2.4161049497688203"/>
  </node>
  <node id="-160" lat="-0.0006303884595213141" lon="-0.00012850801436232307">
    <tag k="ele" v="-2.4152115878560134"/>
  </node>
  <node id="-161" lat="-0.0006295941381222675" lon="-0.00011932045294254796">
    <tag k="ele" v="-2.414227780114863"/>
  </node>
  <node id="-162" lat="-0.0006287740694130863" lon="-0.00011010851282235511">
    <tag k="ele" v="-2.413151683285312"/>
  </node>
  <node id="-163" lat="-0.0006279282992805395" lon="-0.00010087192697339911">
    <tag k="ele" v="-2.411981454107306"/>
  </node>
  <node id="-164" lat="-0.0006270568736113976" lon="-9.161042836726431e-05">
    <tag k="ele" v="-2.4107152493207886"/>
  </node>
  <node id="-165" lat="-0.0006261598382924299" lon="-8.232374997560228e-05">
    <tag k="ele" v="-2.409351225665705"/>
  </node>
  <node id="-166" lat="-0.0006252372392104061" lon="-7.301162477000892e-05">
    <tag k="ele" v="-2.4078875398819983"/>
  </node>
  <node id="-167" lat="-0.0006242891222520962" lon="-6.367378572212979e-05">
    <tag k="ele" v="-2.4063223487096144"/>
  </node>
  <node id="-168" lat="-0.00062331553330427" lon="-5.43099658035767e-05">
    <tag k="ele" v="-2.404653808888497"/>
  </node>
  <node id="-169" lat="-0.0006223165182536969" lon="-4.49198979859693e-05">
    <tag k="ele" v="-2.4028800771585894"/>
  </node>
  <node id="-170" lat="-0.000621292122987147" lon="-3.5503315240934914e-05">
    <tag k="ele" v="-2.4009993102598375"/>
  </node>
  <node id="-171" lat="-0.0006202423933913899" lon="-2.6059950540090397e-05">
    <tag k="ele" v="-2.3990096649321853"/>
  </node>
  <node id="-172" lat="-0.0006191673753531953" lon="-1.658953685505521e-05">
    <tag k="ele" v="-2.396909297915576"/>
  </node>
  <node id="-173" lat="-0.0006180671147593329" lon="-7.091807157465221e-06">
    <tag k="ele" v="-2.394696365949956"/>
  </node>
  <node id="-174" lat="-0.0006169416574965727" lon="2.433505581076314e-06">
    <tag k="ele" v="-2.3923690257752677"/>
  </node>
  <way id="-176">
    <nd ref="-1"/>
    <nd ref="-2"/>
    <nd ref="-3"/>
    <nd ref="-4"/>
    <nd ref="-5"/>
    <nd ref="-6"/>
    <nd ref="-7"/>
    <nd ref="-8"/>
    <nd ref="-9"/>
    <nd ref="-10"/>
    <nd ref="-11"/>
    <nd ref="-12"/>
    <nd ref="-13"/>
    <nd ref="-14"/>
    <nd ref="-15"/>
    <nd ref="-16"/>
    <nd ref="-17"/>
    <nd ref="-18"/>
    <nd ref="-19"/>
    <nd ref="-20"/>
    <nd ref="-21"/>
    <nd ref="-22"/>
    <nd ref="-23"/>
    <nd ref="-24"/>
    <nd ref="-25"/>
    <nd ref="-26"/>
    <nd ref="-27"/>
    <nd ref="-28"/>
    <nd ref="-29"/>
    <nd ref="-30"/>
    <nd ref="-31"/>
    <nd ref="-32"/>
    <nd ref="-33"/>
    <nd ref="-34"/>
    <nd ref="-35"/>
    <nd ref="-36"/>
    <nd ref="-37"/>
    <nd ref="-38"/>
    <nd ref="-39"/>
    <nd ref="-40"/>
    <nd ref="-41"/>
    <nd ref="-42"/>
    <nd ref="-43"/>
    <nd ref="-44"/>
    <nd ref="-45"/>
    <nd ref="-46"/>
    <nd ref="-47"/>
    <nd ref="-48"/>
    <nd ref="-49"/>
    <nd ref="-50"/>
    <nd ref="-51"/>
    <nd ref="-52"/>
    <nd ref="-53"/>
    <nd ref="-54"/>
    <nd ref="-55"/>
    <nd ref="-56"/>
    <nd ref="-57"/>
    <nd ref="-58"/>
    <nd ref="-59"/>
    <nd ref="-60"/>
    <nd ref="-61"/>
    <nd ref="-62"/>
    <nd ref="-63"/>
    <nd ref="-64"/>
    <nd ref="-65"/>
    <nd ref="-66"/>
    <nd ref="-67"/>
    <nd ref="-68"/>
    <nd ref="-69"/>
    <nd ref="-70"/>
    <nd ref="-71"/>
    <nd ref="-72"/>
    <nd ref="-73"/>
    <nd ref="-74"/>
    <nd ref="-75"/>
    <nd ref="-76"/>
    <nd ref="-77"/>
    <nd ref="-78"/>
    <nd ref="-79"/>
    <nd ref="-80"/>
    <nd ref="-81"/>
    <nd ref="-82"/>
    <nd ref="-83"/>
    <tag k="type" v="line_thin"/>
    <tag k="subtype" v="solid"/>
  </way>
  <way id="-177">
    <nd ref="-84"/>
    <nd ref="-85"/>
    <nd ref="-86"/>
    <nd ref="-87"/>
    <nd ref="-88"/>
    <nd ref="-89"/>
    <nd ref="-90"/>
    <nd ref="-91"/>
    <nd ref="-92"/>
    <nd ref="-93"/>
    <nd ref="-94"/>
    <nd ref="-95"/>
    <nd ref="-96"/>
    <nd ref="-97"/>
    <nd ref="-98"/>
    <nd ref="-99"/>
    <nd ref="-100"/>
    <nd ref="-101"/>
    <nd ref="-102"/>
    <nd ref="-103"/>
    <nd ref="-104"/>
    <nd ref="-105"/>
    <nd ref="-106"/>
    <nd ref="-107"/>
    <nd ref="-108"/>
    <nd ref="-109"/>
    <nd ref="-110"/>
    <nd ref="-111"/>
    <nd ref="-112"/>
    <nd ref="-113"/>
    <nd ref="-114"/>
    <nd ref="-115"/>
    <nd ref="-116"/>
    <nd ref="-117"/>
    <nd ref="-118"/>
    <nd ref="-119"/>
    <nd ref="-120"/>
    <nd ref="-121"/>
    <nd ref="-122"/>
    <nd ref="-123"/>
    <nd ref="-124"/>
    <nd ref="-125"/>
    <nd ref="-126"/>
    <nd ref="-127"/>
    <nd ref="-128"/>
    <nd ref="-129"/>
    <nd ref="-130"/>
    <nd ref="-131"/>
    <nd ref="-132"/>
    <nd ref="-133"/>
    <nd ref="-134"/>
    <nd ref="-135"/>
    <nd ref="-136"/>
    <nd ref="-137"/>
    <nd ref="-138"/>
    <nd ref="-139"/>
    <nd ref="-140"/>
    <nd ref="-141"/>
    <nd ref="-142"/>
    <nd ref="-143"/>
    <nd ref="-144"/>
    <nd ref="-145"/>
    <nd ref="-146"/>
    <nd ref="-147"/>
    <nd ref="-148"/>
    <nd ref="-149"/>
    <nd ref="-150"/>
    <nd ref="-151"/>
    <nd ref="-152"/>
    <nd ref="-153"/>
    <nd ref="-154"/>
    <nd ref="-155"/>
    <nd ref="-156"/>
    <nd ref="-157"/>
    <nd ref="-158"/>
    <nd ref="-159"/>
    <nd ref="-160"/>
    <nd ref="-161"/>
    <nd ref="-162"/>
    <nd ref="-163"/>
    <nd ref="-164"/>
    <nd ref="-165"/>
    <nd ref="-166"/>
    <nd ref="-167"/>
    <nd ref="-168"/>
    <nd ref="-169"/>
    <nd ref="-170"/>
    <nd ref="-171"/>
    <nd ref="-172"/>
    <nd ref="-173"/>
    <nd ref="-174"/>
    <tag k="type" v="line_thin"/>
    <tag k="subtype" v="solid"/>
  </way>
  <relation id="-178">
    <member type="way" ref="-176" role="left"/>
    <member type="way" ref="-177" role="right"/>
    <tag k="type" v="lanelet"/>
    <tag k="subtype" v="road"/>
  </relation>
</osm>
